NORAD_CAT_ID,OBJECT_NAME,OBJECT_TYPE,EPOCH,MEAN_MOTION,ECCENTRICITY,INCLINATION,RA_OF_ASC_NODE,ARG_OF_PERICENTER,MEAN_ANOMALY,BSTAR,MEAN_MOTION_DOT,MEAN_MOTION_DDOT,TLE_LINE0,TLE_LINE1,TLE_LINE2,SEMIMAJOR_AXIS,PERIOD,APOGEE,PERIGEE,DECAYED
53269.0,STARLINK-4057,PAYLOAD,2023-02-19 13:15:40,15.0885711,0.0001676,53.2167,145.6741,87.679,272.4394,0.0014007,0.00022085,0.0,0 STARLINK-4057,1 53269U 22086AD  23050.55254751  .00022085  00000-0  14007-2 0  9998,2 53269  53.2167 145.6741 0001676  87.6790 272.4394 15.08857110 32828,6917.828,95.436,540.853,538.534,0.0
53269.0,STARLINK-4057,PAYLOAD,2023-02-20 06:44:54,15.08854653,0.0001569,53.2175,142.4022,104.6158,255.5008,0.0010153,0.00015914,0.0,0 STARLINK-4057,1 53269U 22086AD  23051.28118304  .00015914  00000-0  10153-2 0  9993,2 53269  53.2175 142.4022 0001569 104.6158 255.5008 15.08854653 32938,6917.836,95.437,540.786,538.615,0.0
53269.0,STARLINK-4057,PAYLOAD,2023-02-20 13:06:26,15.08859129,0.0001479,53.2164,141.2131,102.5228,257.593,0.00074175,0.00011543,0.0,0 STARLINK-4057,1 53269U 22086AD  23051.54614018  .00011543  00000-0  74175-3 0  9994,2 53269  53.2164 141.2131 0001479 102.5228 257.5930 15.08859129 33153,6917.822,95.436,540.71,538.664,0.0
53269.0,STARLINK-4057,PAYLOAD,2023-02-20 16:17:12,15.0885462,0.0001394,53.2158,140.6194,103.145,256.9697,0.0010056,0.00015759,0.0,0 STARLINK-4057,1 53269U 22086AD  23051.67862051  .00015759  00000-0  10056-2 0  9990,2 53269  53.2158 140.6194 0001394 103.1450 256.9697 15.08854620 32993,6917.836,95.437,540.665,538.736,0.0
53269.0,STARLINK-4057,PAYLOAD,2023-02-21 14:32:36,15.08867289,0.0001454,53.2162,136.4555,99.8286,260.287,0.0015905,0.00025134,0.0,0 STARLINK-4057,1 53269U 22086AD  23052.60597870  .00025134  00000-0  15905-2 0  9994,2 53269  53.2162 136.4555 0001454  99.8286 260.2870 15.08867289 33130,6917.797,95.436,540.668,538.656,0.0
53269.0,STARLINK-4057,PAYLOAD,2023-02-21 17:43:22,15.08879311,0.0001261,53.2156,135.861,103.7705,256.3428,0.0020314,0.00032225,0.0,0 STARLINK-4057,1 53269U 22086AD  23052.73845460  .00032225  00000-0  20314-2 0  9998,2 53269  53.2156 135.8610 0001261 103.7705 256.3428 15.08879311 33331,6917.76,95.435,540.498,538.753,0.0
53269.0,STARLINK-4057,PAYLOAD,2023-02-21 22:29:32,15.08850594,0.0001489,53.2163,134.9687,82.7259,277.3902,0.00056978,8.794e-05,0.0,0 STARLINK-4057,1 53269U 22086AD  23052.93717830  .00008794  00000-0  56978-3 0  9999,2 53269  53.2163 134.9687 0001489  82.7259 277.3902 15.08850594 33180,6917.848,95.437,540.743,538.683,0.0
53269.0,STARLINK-4057,PAYLOAD,2023-02-22 11:12:37,15.08846069,0.0001435,53.2159,132.5899,85.5126,274.6031,0.00064229,9.951e-05,0.0,0 STARLINK-4057,1 53269U 22086AD  23053.46709765  .00009951  00000-0  64229-3 0  9990,2 53269  53.2159 132.5899 0001435  85.5126 274.6031 15.08846069 33263,6917.862,95.437,540.72,538.734,0.0
53269.0,STARLINK-4057,PAYLOAD,2023-02-22 12:48:00,15.08844568,0.0001346,53.2159,132.2926,92.4883,267.6264,0.0003855,5.853e-05,0.0,0 STARLINK-4057,1 53269U 22086AD  23053.53333657  .00005853  00000-0  38550-3 0  9996,2 53269  53.2159 132.2926 0001346  92.4883 267.6264 15.08844568 33452,6917.866,95.437,540.663,538.8,0.0
53269.0,STARLINK-4057,PAYLOAD,2023-02-22 22:20:19,15.08823034,8.81e-05,53.2157,130.5084,118.6738,241.4343,-0.00061656,-0.00010082,0.0,0 STARLINK-4057,1 53269U 22086AD  23053.93077751 -.00010082  00000-0 -61656-3 0  9995,2 53269  53.2157 130.5084 0000881 118.6738 241.4343 15.08823034 33519,6917.932,95.439,540.407,539.188,0.0
53269.0,STARLINK-4057,PAYLOAD,2023-02-23 11:03:24,15.08842976,0.0001171,53.2155,128.1281,105.0919,255.0203,0.00055496,8.556e-05,0.0,0 STARLINK-4057,1 53269U 22086AD  23054.46070072  .00008556  00000-0  55496-3 0  9999,2 53269  53.2155 128.1281 0001171 105.0919 255.0203 15.08842976 33593,6917.871,95.437,540.546,538.926,0.0
53269.0,STARLINK-4057,PAYLOAD,2023-02-23 12:38:47,15.08843037,0.0001202,53.2157,127.831,101.0386,259.0742,0.0018711,0.00029619,0.0,0 STARLINK-4057,1 53269U 22086AD  23054.52694251  .00029619  00000-0  18711-2 0  9998,2 53269  53.2157 127.8310 0001202 101.0386 259.0742 15.08843037 33426,6917.871,95.437,540.568,538.905,0.0
53269.0,STARLINK-4057,PAYLOAD,2023-02-23 17:24:57,15.08859401,0.0001209,53.2157,126.9383,101.5078,258.6049,0.0021223,0.00033668,0.0,0 STARLINK-4057,1 53269U 22086AD  23054.72566035  .00033668  00000-0  21223-2 0  9999,2 53269  53.2157 126.9383 0001209 101.5078 258.6049 15.08859401 33636,6917.821,95.436,540.522,538.85,0.0
53269.0,STARLINK-4057,PAYLOAD,2023-02-23 22:11:06,15.08838092,5.76e-05,53.2159,126.0465,128.4975,231.6069,0.00037095,5.621e-05,0.0,0 STARLINK-4057,1 53269U 22086AD  23054.92438146  .00005621  00000-0  37095-3 0  9995,2 53269  53.2159 126.0465 0000576 128.4975 231.6069 15.08838092 33489,6917.886,95.438,540.15,539.353,0.0
53269.0,STARLINK-4057,PAYLOAD,2023-02-24 10:54:12,15.08845714,0.0001422,53.2157,123.6676,94.2304,265.8851,0.0006192,9.582e-05,0.0,0 STARLINK-4057,1 53269U 22086AD  23055.45430560  .00009582  00000-0  61920-3 0  9990,2 53269  53.2157 123.6676 0001422  94.2304 265.8851 15.08845714 33747,6917.863,95.437,540.712,538.744,0.0
53269.0,STARLINK-4057,PAYLOAD,2023-02-24 15:40:21,15.08853558,0.0001442,53.2159,122.7751,96.2459,263.8698,0.00079378,0.00012372,0.0,0 STARLINK-4057,1 53269U 22086AD  23055.65302289  .00012372  00000-0  79378-3 0  9995,2 53269  53.2159 122.7751 0001442  96.2459 263.8698 15.08853558 33773,6917.839,95.437,540.702,538.706,0.0
53269.0,STARLINK-4057,PAYLOAD,2023-02-24 22:01:54,15.0883215,0.0001031,53.216,121.5864,104.0974,256.0132,-1.3666e-05,-5.05e-06,0.0,0 STARLINK-4057,1 53269U 22086AD  23055.91798616 -.00000505  00000-0 -13666-4 0  9993,2 53269  53.2160 121.5864 0001031 104.0974 256.0132 15.08832150 33638,6917.904,95.438,540.483,539.056,0.0
53269.0,STARLINK-4057,PAYLOAD,2023-02-25 04:23:26,15.08832632,0.0001498,53.2152,120.3938,121.7805,238.3334,6.557e-05,7.56e-06,0.0,0 STARLINK-4057,1 53269U 22086AD  23056.18294806  .00000756  00000-0  65570-4 0  9992,2 53269  53.2152 120.3938 0001498 121.7805 238.3334 15.08832632 33850,6917.903,95.438,540.804,538.732,0.0
53269.0,STARLINK-4057,PAYLOAD,2023-02-25 15:31:09,15.08833726,0.0001566,53.2156,118.316,93.0759,267.0412,0.00032302,4.856e-05,0.0,0 STARLINK-4057,1 53269U 22086AD  23056.64663296  .00004856  00000-0  32302-3 0  9997,2 53269  53.2156 118.3160 0001566  93.0759 267.0412 15.08833726 33922,6917.9,95.438,540.848,538.681,0.0
53269.0,STARLINK-4057,PAYLOAD,2023-02-26 09:00:23,15.08856281,0.0001393,53.2155,115.044,105.7917,254.3229,0.00089963,0.00014065,0.0,0 STARLINK-4057,1 53269U 22086AD  23057.37526881  .00014065  00000-0  89963-3 0  9994,2 53269  53.2155 115.0440 0001393 105.7917 254.3229 15.08856281 33859,6917.831,95.437,540.659,538.732,0.0
53269.0,STARLINK-4057,PAYLOAD,2023-02-26 13:46:32,15.08864695,0.0001576,53.2169,114.149,113.7237,246.392,0.000968,0.00015162,0.0,0 STARLINK-4057,1 53269U 22086AD  23057.57398498  .00015162  00000-0  96800-3 0  9994,2 53269  53.2169 114.1490 0001576 113.7237 246.3920 15.08864695 34067,6917.805,95.436,540.76,538.58,0.0
53269.0,STARLINK-4057,PAYLOAD,2023-02-26 15:21:55,15.08873815,0.0001466,53.2163,113.8537,109.3923,250.7228,0.0012434,0.00019574,0.0,0 STARLINK-4057,1 53269U 22086AD  23057.64022261  .00019574  00000-0  12434-2 0  9995,2 53269  53.2163 113.8537 0001466 109.3923 250.7228 15.08873815 33894,6917.777,95.435,540.656,538.628,0.0
53269.0,STARLINK-4057,PAYLOAD,2023-02-26 20:08:05,15.08836712,0.0001336,53.2172,112.9629,110.1595,249.9541,-0.00017827,-3.124e-05,0.0,0 STARLINK-4057,1 53269U 22086AD  23057.83894962 -.00003124  00000-0 -17827-3 0  9999,2 53269  53.2172 112.9629 0001336 110.1595 249.9541 15.08836712 34105,6917.89,95.438,540.68,538.831,0.0
53269.0,STARLINK-4057,PAYLOAD,2023-02-27 04:05:00,15.08842886,0.0001026,53.2156,111.4764,116.7235,243.3863,6.4904e-05,7.45e-06,0.0,0 STARLINK-4057,1 53269U 22086AD  23058.17014712  .00000745  00000-0  64904-4 0  9997,2 53269  53.2156 111.4764 0001026 116.7235 243.3863 15.08842886 33978,6917.872,95.437,540.446,539.027,0.0
53269.0,STARLINK-4057,PAYLOAD,2023-02-27 15:12:41,15.0891324,0.0001261,53.2163,109.3945,111.425,248.6877,0.0051019,0.00082019,0.0,0 STARLINK-4057,1 53269U 22086AD  23058.63381898  .00082019  00000-0  51019-2 0  9995,2 53269  53.2163 109.3945 0001261 111.4250 248.6877 15.08913240 34048,6917.657,95.433,540.394,538.649,0.0
53269.0,STARLINK-4057,PAYLOAD,2023-02-27 19:58:51,15.08861905,0.0001803,53.217,108.5026,91.3088,268.8111,0.0014434,0.00022772,0.0,0 STARLINK-4057,1 53269U 22086AD  23058.83254446  .00022772  00000-0  14434-2 0  9995,2 53269  53.2170 108.5026 0001803  91.3088 268.8111 15.08861905 34252,6917.813,95.436,540.926,538.431,0.0
53269.0,STARLINK-4057,PAYLOAD,2023-02-28 11:52:42,15.08880826,0.0001372,53.2167,105.5298,87.7207,272.3942,0.0020661,0.00032784,0.0,0 STARLINK-4057,1 53269U 22086AD  23059.49493292  .00032784  00000-0  20661-2 0  9995,2 53269  53.2167 105.5298 0001372  87.7207 272.3942 15.08880826 34355,6917.756,95.435,540.57,538.671,0.0
53269.0,STARLINK-4057,PAYLOAD,2023-02-28 19:49:38,15.08835724,0.00016,53.2165,104.0421,88.8304,271.2872,-0.00056494,-9.267e-05,0.0,0 STARLINK-4057,1 53269U 22086AD  23059.82613745 -.00009267  00000-0 -56494-3 0  9995,2 53269  53.2165 104.0421 0001600  88.8304 271.2872 15.08835724 34402,6917.893,95.438,540.865,538.652,0.0
53269.0,STARLINK-4057,PAYLOAD,2023-03-01 10:08:07,15.08814501,0.0001443,53.216,101.3658,81.43,278.6856,0.0014648,0.00023085,0.0,0 STARLINK-4057,1 53269U 22086AD  23060.42231333  .00023085  00000-0  14648-2 0  9998,2 53269  53.2160 101.3658 0001443  81.4300 278.6856 15.08814501 34312,6917.958,95.439,540.822,538.825,0.0
53269.0,STARLINK-4057,PAYLOAD,2023-03-01 19:40:27,15.08830118,0.0001576,53.2162,99.5818,80.7289,279.3881,0.0017152,0.00027107,0.0,0 STARLINK-4057,1 53269U 22086AD  23060.81975955  .00027107  00000-0  17152-2 0  9998,2 53269  53.2162  99.5818 0001576  80.7289 279.3881 15.08830118 34559,6917.911,95.438,540.866,538.685,0.0
